[{"OBJECT_NAME":"STARLINK-31349","OBJECT_ID":"2024-056X","EPOCH":"2026-03-09T11:36:04.250592","MEAN_MOTION":15.27574483,"ECCENTRICITY":0.00011081,"INCLINATION":42.9995,"RA_OF_ASC_NODE":231.7936,"ARG_OF_PERICENTER":266.9092,"MEAN_ANOMALY":93.1633,"EPHEMERIS_TYPE":0,"CLASSIFICATION_TYPE":"U","NORAD_CAT_ID":59317,"ELEMENT_SET_NO":999,"REV_AT_EPOCH":11119,"BSTAR":2.004942e-6,"MEAN_MOTION_DOT":-2.07e-6,"MEAN_MOTION_DDOT":0},{"OBJECT_NAME":"NUSAT-48 (HENRIETTA LEAVITT)","OBJECT_ID":"2024-149AG","EPOCH":"2026-03-09T19:19:17.269536","MEAN_MOTION":15.29812597,"ECCENTRICITY":0.00027538,"INCLINATION":97.3923,"RA_OF_ASC_NODE":150.8264,"ARG_OF_PERICENTER":263.3026,"MEAN_ANOMALY":96.7901,"EPHEMERIS_TYPE":0,"CLASSIFICATION_TYPE":"U","NORAD_CAT_ID":60498,"ELEMENT_SET_NO":999,"REV_AT_EPOCH":8694,"BSTAR":0.00045211745,"MEAN_MOTION_DOT":0.00012988,"MEAN_MOTION_DDOT":0}]
